{
    "links": {
        "self": "http://www.neowsapp.com/rest/v1/neo/3843443?api_key=iIulBulltgU6a56xZRHN4H3l9WmuAYTsLGpBGhQ2"
    },
    "id": "3843443",
    "neo_reference_id": "3843443",
    "name": "(2019 OU4)",
    "designation": "2019 OU4",
    "nasa_jpl_url": "http://ssd.jpl.nasa.gov/sbdb.cgi?sstr=3843443",
    "absolute_magnitude_h": 23.9,
    "estimated_diameter": {
        "kilometers": {
            "estimated_diameter_min": 0.04411182,
            "estimated_diameter_max": 0.0986370281
        },
        "meters": {
            "estimated_diameter_min": 44.1118199997,
            "estimated_diameter_max": 98.6370281305
        },
        "miles": {
            "estimated_diameter_min": 0.0274098057,
            "estimated_diameter_max": 0.0612901888
        },
        "feet": {
            "estimated_diameter_min": 144.7238235278,
            "estimated_diameter_max": 323.6123073718
        }
    },
    "is_potentially_hazardous_asteroid": false,
    "close_approach_data": [
        {
            "close_approach_date": "1940-07-19",
            "close_approach_date_full": "1940-Jul-19 04:16",
            "epoch_date_close_approach": -929475840000,
            "relative_velocity": {
                "kilometers_per_second": "7.544631729",
                "kilometers_per_hour": "27160.6742242861",
                "miles_per_hour": "16876.5867145293"
            },
            "miss_distance": {
                "astronomical": "0.4829315498",
                "lunar": "187.8603728722",
                "kilometers": "72245531.205878926",
                "miles": "44891291.4544881388"
            },
            "orbiting_body": "Earth"
        },
        {
            "close_approach_date": "2008-08-18",
            "close_approach_date_full": "2008-Aug-18 09:56",
            "epoch_date_close_approach": 1219053360000,
            "relative_velocity": {
                "kilometers_per_second": "9.8775005475",
                "kilometers_per_hour": "35559.001970951",
                "miles_per_hour": "22094.9809746723"
            },
            "miss_distance": {
                "astronomical": "0.1408234362",
                "lunar": "54.7803166818",
                "kilometers": "21066886.101600894",
                "miles": "13090356.0156605772"
            },
            "orbiting_body": "Earth"
        },
        {
            "close_approach_date": "2019-08-19",
            "close_approach_date_full": "2019-Aug-19 18:18",
            "epoch_date_close_approach": 1566238680000,
            "relative_velocity": {
                "kilometers_per_second": "9.4549265857",
                "kilometers_per_hour": "34037.7357084382",
                "miles_per_hour": "21149.7252795015"
            },
            "miss_distance": {
                "astronomical": "0.1358088033",
                "lunar": "52.8296244837",
                "kilometers": "20316707.700928971",
                "miles": "12624216.7726469598"
            },
            "orbiting_body": "Earth"
        },
        {
            "close_approach_date": "2030-08-19",
            "close_approach_date_full": "2030-Aug-19 20:45",
            "epoch_date_close_approach": 1913402700000,
            "relative_velocity": {
                "kilometers_per_second": "9.2034242467",
                "kilometers_per_hour": "33132.3272879834",
                "miles_per_hour": "20587.1396973583"
            },
            "miss_distance": {
                "astronomical": "0.1351304277",
                "lunar": "52.5657363753",
                "kilometers": "20215224.156108999",
                "miles": "12561157.8219782262"
            },
            "orbiting_body": "Earth"
        }
    ],
    "orbital_data": {
        "orbit_id": "5",
        "orbit_determination_date": "2019-09-03 06:00:00",
        "first_observation_date": "2019-07-25",
        "last_observation_date": "2019-09-01",
        "data_arc_in_days": 38,
        "observations_used": 24,
        "orbit_uncertainty": "7",
        "minimum_orbit_intersection": ".135362",
        "jupiter_tisserand_invariant": "4.461",
        "epoch_osculation": "2459000.5",
        "eccentricity": ".3052352074968835",
        "semi_major_axis": "1.498142128085477",
        "inclination": "14.76517021147263",
        "ascending_node_longitude": "129.6332410136442",
        "orbital_period": "669.7734867694838",
        "perihelion_distance": "1.040856404759483",
        "perihelion_argument": "243.0774431792612",
        "aphelion_distance": "1.95542785141147",
        "perihelion_time": "2458759.900623118952",
        "mean_anomaly": "129.3209979017693",
        "mean_motion": ".5374951488993492",
        "equinox": "J2000",
        "orbit_class": {
            "orbit_class_type": "AMO",
            "orbit_class_description": "Near-Earth asteroid orbits similar to that of 1221 Amor",
            "orbit_class_range": "1.017 AU < q (perihelion) < 1.3 AU"
        }
    },
    "is_sentry_object": false
}